[
  {
    "COMMENT": "GENERATED VIA SPACETRACK.ORG API",
    "ORIGINATOR": "18 SPCS",
    "NORAD_CAT_ID": "55970",
    "OBJECT_NAME": "SES 18",
    "OBJECT_TYPE": "PAYLOAD",
    "CLASSIFICATION_TYPE": "U",
    "INTLDES": "23038A",
    "EPOCH": "2023-04-08 14:05:21",
    "EPOCH_MICROSECONDS": "887232",
    "MEAN_MOTION": "1.00272687",
    "ECCENTRICITY": "0.0000507",
    "INCLINATION": "0.0777",
    "RA_OF_ASC_NODE": "266.9669",
    "ARG_OF_PERICENTER": "21.6096",
    "MEAN_ANOMALY": "338.1373",
    "EPHEMERIS_TYPE": "0",
    "ELEMENT_SET_NO": "999",
    "REV_AT_EPOCH": "42",
    "BSTAR": "0",
    "MEAN_MOTION_DOT": "0.00000121",
    "MEAN_MOTION_DDOT": "0",
    "FILE": "3883503",
    "TLE_LINE0": "0 SES 18",
    "TLE_LINE1": "1 55970U 23038A   23098.58705888  .00000121  00000-0  00000+0 0  9996",
    "TLE_LINE2": "2 55970   0.0777 266.9669 0000507  21.6096 338.1373  1.00272687   426",
    "OBJECT_ID": "2023-038A",
    "OBJECT_NUMBER": "55970",
    "SEMIMAJOR_AXIS": "42164.479",
    "PERIOD": "1436.084",
    "APOGEE": "35788.482",
    "PERIGEE": "35784.206",
    "DECAYED": "0"
  },
  {
    "COMMENT": "GENERATED VIA SPACETRACK.ORG API",
    "ORIGINATOR": "18 SPCS",
    "NORAD_CAT_ID": "55970",
    "OBJECT_NAME": "SES 18",
    "OBJECT_TYPE": "PAYLOAD",
    "CLASSIFICATION_TYPE": "U",
    "INTLDES": "23038A",
    "EPOCH": "2023-04-08 14:05:21",
    "EPOCH_MICROSECONDS": "887232",
    "MEAN_MOTION": "1.00272687",
    "ECCENTRICITY": "0.0000507",
    "INCLINATION": "0.0777",
    "RA_OF_ASC_NODE": "266.9669",
    "ARG_OF_PERICENTER": "21.6096",
    "MEAN_ANOMALY": "338.1373",
    "EPHEMERIS_TYPE": "0",
    "ELEMENT_SET_NO": "999",
    "REV_AT_EPOCH": "42",
    "BSTAR": "0",
    "MEAN_MOTION_DOT": "0.00000121",
    "MEAN_MOTION_DDOT": "0",
    "FILE": "3883527",
    "TLE_LINE0": "0 SES 18",
    "TLE_LINE1": "1 55970U 23038A   23098.58705888  .00000121  00000-0  00000-0 0  9997",
    "TLE_LINE2": "2 55970   0.0777 266.9669 0000507  21.6096 338.1373  1.00272687   426",
    "OBJECT_ID": "2023-038A",
    "OBJECT_NUMBER": "55970",
    "SEMIMAJOR_AXIS": "42164.479",
    "PERIOD": "1436.084",
    "APOGEE": "35788.482",
    "PERIGEE": "35784.206",
    "DECAYED": "0"
  },
  {
    "COMMENT": "GENERATED VIA SPACETRACK.ORG API",
    "ORIGINATOR": "18 SPCS",
    "NORAD_CAT_ID": "25544",
    "OBJECT_NAME": "ISS (ZARYA)",
    "OBJECT_TYPE": "PAYLOAD",
    "CLASSIFICATION_TYPE": "U",
    "INTLDES": "98067A",
    "EPOCH": "2023-04-08 16:57:36",
    "EPOCH_MICROSECONDS": "287136",
    "MEAN_MOTION": "15.49616837",
    "ECCENTRICITY": "0.0006594",
    "INCLINATION": "51.6396",
    "RA_OF_ASC_NODE": "312.8323",
    "ARG_OF_PERICENTER": "169.0025",
    "MEAN_ANOMALY": "296.2982",
    "EPHEMERIS_TYPE": "0",
    "ELEMENT_SET_NO": "999",
    "REV_AT_EPOCH": "39101",
    "BSTAR": "0.00027786",
    "MEAN_MOTION_DOT": "0.00015229",
    "MEAN_MOTION_DDOT": "0",
    "FILE": "3883519",
    "TLE_LINE0": "0 ISS (ZARYA)",
    "TLE_LINE1": "1 25544U 98067A   23098.70666999  .00015229  00000-0  27786-3 0  9996",
    "TLE_LINE2": "2 25544  51.6396 312.8323 0006594 169.0025 296.2982 15.49616837391013",
    "OBJECT_ID": "1998-067A",
    "OBJECT_NUMBER": "25544",
    "SEMIMAJOR_AXIS": "6795.983",
    "PERIOD": "92.926",
    "APOGEE": "422.329",
    "PERIGEE": "413.367",
    "DECAYED": "0"
  },
  {
    "COMMENT": "GENERATED VIA SPACETRACK.ORG API",
    "ORIGINATOR": "18 SPCS",
    "NORAD_CAT_ID": "41335",
    "OBJECT_NAME": "SENTINEL 3A",
    "OBJECT_TYPE": "PAYLOAD",
    "CLASSIFICATION_TYPE": "U",
    "INTLDES": "16011A",
    "EPOCH": "2023-04-08 19:09:28",
    "EPOCH_MICROSECONDS": "954656",
    "MEAN_MOTION": "14.26732204",
    "ECCENTRICITY": "0.0001032",
    "INCLINATION": "98.6268",
    "RA_OF_ASC_NODE": "166.8554",
    "ARG_OF_PERICENTER": "103.2117",
    "MEAN_ANOMALY": "256.9179",
    "EPHEMERIS_TYPE": "0",
    "ELEMENT_SET_NO": "999",
    "REV_AT_EPOCH": "37188",
    "BSTAR": "0.000096845",
    "MEAN_MOTION_DOT": "0.00000191",
    "MEAN_MOTION_DDOT": "0",
    "FILE": "3883565",
    "TLE_LINE0": "0 SENTINEL 3A",
    "TLE_LINE1": "1 41335U 16011A   23098.79825179  .00000191  00000-0  96845-4 0  9992",
    "TLE_LINE2": "2 41335  98.6268 166.8554 0001032 103.2117 256.9179 14.26732204371880",
    "OBJECT_ID": "2016-011A",
    "OBJECT_NUMBER": "41335",
    "SEMIMAJOR_AXIS": "7180.812",
    "PERIOD": "100.930",
    "APOGEE": "803.418",
    "PERIGEE": "801.936",
    "DECAYED": "0"
  },
  {
    "COMMENT": "GENERATED VIA SPACETRACK.ORG API",
    "ORIGINATOR": "18 SPCS",
    "NORAD_CAT_ID": "25544",
    "OBJECT_NAME": "ISS (ZARYA)",
    "OBJECT_TYPE": "PAYLOAD",
    "CLASSIFICATION_TYPE": "U",
    "INTLDES": "98067A",
    "EPOCH": "2023-04-08 21:12:36",
    "EPOCH_MICROSECONDS": "876096",
    "MEAN_MOTION": "15.4962163",
    "ECCENTRICITY": "0.0006548",
    "INCLINATION": "51.6394",
    "RA_OF_ASC_NODE": "311.9562",
    "ARG_OF_PERICENTER": "169.7513",
    "MEAN_ANOMALY": "204.1186",
    "EPHEMERIS_TYPE": "0",
    "ELEMENT_SET_NO": "999",
    "REV_AT_EPOCH": "39104",
    "BSTAR": "0.00027569",
    "MEAN_MOTION_DOT": "0.00015109",
    "MEAN_MOTION_DDOT": "0",
    "FILE": "3883532",
    "TLE_LINE0": "0 ISS (ZARYA)",
    "TLE_LINE1": "1 25544U 98067A   23098.88376014  .00015109  00000-0  27569-3 0  9997",
    "TLE_LINE2": "2 25544  51.6394 311.9562 0006548 169.7513 204.1186 15.49621630391048",
    "OBJECT_ID": "1998-067A",
    "OBJECT_NUMBER": "25544",
    "SEMIMAJOR_AXIS": "6795.969",
    "PERIOD": "92.926",
    "APOGEE": "422.284",
    "PERIGEE": "413.384",
    "DECAYED": "0"
  },
  {
    "COMMENT": "GENERATED VIA SPACETRACK.ORG API",
    "ORIGINATOR": "18 SPCS",
    "NORAD_CAT_ID": "25544",
    "OBJECT_NAME": "ISS (ZARYA)",
    "OBJECT_TYPE": "PAYLOAD",
    "CLASSIFICATION_TYPE": "U",
    "INTLDES": "98067A",
    "EPOCH": "2023-04-09 02:24:16",
    "EPOCH_MICROSECONDS": "883424",
    "MEAN_MOTION": "15.49627436",
    "ECCENTRICITY": "0.0006511",
    "INCLINATION": "51.6394",
    "RA_OF_ASC_NODE": "310.8844",
    "ARG_OF_PERICENTER": "170.9978",
    "MEAN_ANOMALY": "331.0834",
    "EPHEMERIS_TYPE": "0",
    "ELEMENT_SET_NO": "999",
    "REV_AT_EPOCH": "39107",
    "BSTAR": "0.0002719",
    "MEAN_MOTION_DOT": "0.00014897",
    "MEAN_MOTION_DDOT": "0",
    "FILE": "3883791",
    "TLE_LINE0": "0 ISS (ZARYA)",
    "TLE_LINE1": "1 25544U 98067A   23099.10019541  .00014897  00000-0  27190-3 0  9995",
    "TLE_LINE2": "2 25544  51.6394 310.8844 0006511 170.9978 331.0834 15.49627436391071",
    "OBJECT_ID": "1998-067A",
    "OBJECT_NUMBER": "25544",
    "SEMIMAJOR_AXIS": "6795.952",
    "PERIOD": "92.926",
    "APOGEE": "422.242",
    "PERIGEE": "413.392",
    "DECAYED": "0"
  },
  {
    "COMMENT": "GENERATED VIA SPACETRACK.ORG API",
    "ORIGINATOR": "18 SPCS",
    "NORAD_CAT_ID": "41335",
    "OBJECT_NAME": "SENTINEL 3A",
    "OBJECT_TYPE": "PAYLOAD",
    "CLASSIFICATION_TYPE": "U",
    "INTLDES": "16011A",
    "EPOCH": "2023-04-09 03:34:25",
    "EPOCH_MICROSECONDS": "153536",
    "MEAN_MOTION": "14.26732396",
    "ECCENTRICITY": "0.000103",
    "INCLINATION": "98.6267",
    "RA_OF_ASC_NODE": "167.2011",
    "ARG_OF_PERICENTER": "103.2692",
    "MEAN_ANOMALY": "256.8604",
    "EPHEMERIS_TYPE": "0",
    "ELEMENT_SET_NO": "999",
    "REV_AT_EPOCH": "37193",
    "BSTAR": "0.000096586",
    "MEAN_MOTION_DOT": "0.0000019",
    "MEAN_MOTION_DDOT": "0",
    "FILE": "3883835",
    "TLE_LINE0": "0 SENTINEL 3A",
    "TLE_LINE1": "1 41335U 16011A   23099.14890224  .00000190  00000-0  96586-4 0  9996",
    "TLE_LINE2": "2 41335  98.6267 167.2011 0001030 103.2692 256.8604 14.26732396371938",
    "OBJECT_ID": "2016-011A",
    "OBJECT_NUMBER": "41335",
    "SEMIMAJOR_AXIS": "7180.811",
    "PERIOD": "100.930",
    "APOGEE": "803.416",
    "PERIGEE": "801.936",
    "DECAYED": "0"
  },
  {
    "COMMENT": "GENERATED VIA SPACETRACK.ORG API",
    "ORIGINATOR": "18 SPCS",
    "NORAD_CAT_ID": "25544",
    "OBJECT_NAME": "ISS (ZARYA)",
    "OBJECT_TYPE": "PAYLOAD",
    "CLASSIFICATION_TYPE": "U",
    "INTLDES": "98067A",
    "EPOCH": "2023-04-09 05:21:30",
    "EPOCH_MICROSECONDS": "81312",
    "MEAN_MOTION": "15.49630649",
    "ECCENTRICITY": "0.0006477",
    "INCLINATION": "51.6395",
    "RA_OF_ASC_NODE": "310.275",
    "ARG_OF_PERICENTER": "171.5737",
    "MEAN_ANOMALY": "297.5227",
    "EPHEMERIS_TYPE": "0",
    "ELEMENT_SET_NO": "999",
    "REV_AT_EPOCH": "39109",
    "BSTAR": "0.00026928",
    "MEAN_MOTION_DOT": "0.00014751",
    "MEAN_MOTION_DDOT": "0",
    "FILE": "3883800",
    "TLE_LINE0": "0 ISS (ZARYA)",
    "TLE_LINE1": "1 25544U 98067A   23099.22326483  .00014751  00000-0  26928-3 0  9991",
    "TLE_LINE2": "2 25544  51.6395 310.2750 0006477 171.5737 297.5227 15.49630649391097",
    "OBJECT_ID": "1998-067A",
    "OBJECT_NUMBER": "25544",
    "SEMIMAJOR_AXIS": "6795.943",
    "PERIOD": "92.925",
    "APOGEE": "422.209",
    "PERIGEE": "413.406",
    "DECAYED": "0"
  },
  {
    "COMMENT": "GENERATED VIA SPACETRACK.ORG API",
    "ORIGINATOR": "18 SPCS",
    "NORAD_CAT_ID": "25544",
    "OBJECT_NAME": "ISS (ZARYA)",
    "OBJECT_TYPE": "PAYLOAD",
    "CLASSIFICATION_TYPE": "U",
    "INTLDES": "98067A",
    "EPOCH": "2023-04-09 08:43:45",
    "EPOCH_MICROSECONDS": "554016",
    "MEAN_MOTION": "15.49634498",
    "ECCENTRICITY": "0.0006449",
    "INCLINATION": "51.6394",
    "RA_OF_ASC_NODE": "309.5793",
    "ARG_OF_PERICENTER": "172.3562",
    "MEAN_ANOMALY": "0.8196",
    "EPHEMERIS_TYPE": "0",
    "ELEMENT_SET_NO": "999",
    "REV_AT_EPOCH": "39111",
    "BSTAR": "0.00026795",
    "MEAN_MOTION_DOT": "0.00014677",
    "MEAN_MOTION_DDOT": "0",
    "FILE": "3884076",
    "TLE_LINE0": "0 ISS (ZARYA)",
    "TLE_LINE1": "1 25544U 98067A   23099.36372169  .00014677  00000-0  26795-3 0  9997",
    "TLE_LINE2": "2 25544  51.6394 309.5793 0006449 172.3562   0.8196 15.49634498391117",
    "OBJECT_ID": "1998-067A",
    "OBJECT_NUMBER": "25544",
    "SEMIMAJOR_AXIS": "6795.931",
    "PERIOD": "92.925",
    "APOGEE": "422.179",
    "PERIGEE": "413.414",
    "DECAYED": "0"
  }
]